NORAD_CAT_ID,OBJECT_NAME,OBJECT_TYPE,EPOCH,MEAN_MOTION,ECCENTRICITY,INCLINATION,RA_OF_ASC_NODE,ARG_OF_PERICENTER,MEAN_ANOMALY,BSTAR,MEAN_MOTION_DOT,MEAN_MOTION_DDOT,TLE_LINE0,TLE_LINE1,TLE_LINE2,SEMIMAJOR_AXIS,PERIOD,APOGEE,PERIGEE,DECAYED
53564.0,STARLINK-4577,PAYLOAD,2023-02-09 01:28:58,15.08827955,0.0001098,53.2195,62.8301,101.8962,258.2154,-3.4554e-06,-3.43e-06,0.0,0 STARLINK-4577,1 53564U 22101AP  23040.06178443 -.00000343  00000-0 -34554-5 0  9999,2 53564  53.2195  62.8301 0001098 101.8962 258.2154 15.08827955 26662,6917.917,95.438,540.542,539.023,0.0
53564.0,STARLINK-4577,PAYLOAD,2023-02-09 07:50:30,15.08841443,0.0001501,53.2191,61.6445,80.0031,280.1131,-3.497e-05,-8.45e-06,0.0,0 STARLINK-4577,1 53564U 22101AP  23040.32673865 -.00000845  00000-0 -34970-4 0  9994,2 53564  53.2191  61.6445 0001501  80.0031 280.1131 15.08841443 26700,6917.876,95.437,540.779,538.703,0.0
53564.0,STARLINK-4577,PAYLOAD,2023-02-10 01:19:45,15.08833512,0.0001746,53.2201,58.3704,110.6181,249.4998,1.2011e-05,-9.7e-07,0.0,0 STARLINK-4577,1 53564U 22101AP  23041.05538240 -.00000097  00000-0  12011-4 0  9992,2 53564  53.2201  58.3704 0001746 110.6181 249.4998 15.08833512 26819,6917.9,95.438,540.973,538.557,0.0
53564.0,STARLINK-4577,PAYLOAD,2023-02-10 07:41:17,15.08836822,0.00017,53.2201,57.1836,99.1772,260.9412,7.8424e-05,9.6e-06,0.0,0 STARLINK-4577,1 53564U 22101AP  23041.32033902  .00000960  00000-0  78424-4 0  9995,2 53564  53.2201  57.1836 0001700  99.1772 260.9412 15.08836822 26859,6917.89,95.438,540.931,538.579,0.0
53564.0,STARLINK-4577,PAYLOAD,2023-02-11 05:56:41,15.08841776,0.0001654,53.2203,53.0191,108.8882,251.229,-4.5562e-05,-1.013e-05,0.0,0 STARLINK-4577,1 53564U 22101AP  23042.24770117 -.00001013  00000-0 -45562-4 0  9992,2 53564  53.2203  53.0191 0001654 108.8882 251.2290 15.08841776 26994,6917.875,95.437,540.884,538.596,0.0
53564.0,STARLINK-4577,PAYLOAD,2023-02-11 17:04:22,15.08844916,0.0001478,53.2203,50.9392,93.9695,266.1466,-5.7314e-06,-3.79e-06,0.0,0 STARLINK-4577,1 53564U 22101AP  23042.71137660 -.00000379  00000-0 -57314-5 0  9997,2 53564  53.2203  50.9392 0001478  93.9695 266.1466 15.08844916 27061,6917.865,95.437,540.753,538.708,0.0
53564.0,STARLINK-4577,PAYLOAD,2023-02-11 23:25:57,15.088252,0.0001378,53.22,49.748,97.1919,262.923,-0.00014986,-2.671e-05,0.0,0 STARLINK-4577,1 53564U 22101AP  23042.97635476 -.00002671  00000-0 -14986-3 0  9996,2 53564  53.2200  49.7480 0001378  97.1919 262.9230 15.08825200 27109,6917.926,95.438,540.744,538.837,0.0
53564.0,STARLINK-4577,PAYLOAD,2023-02-12 10:33:37,15.08839132,0.0001378,53.2198,47.6663,91.5035,268.6115,-3.5954e-05,-8.6e-06,0.0,0 STARLINK-4577,1 53564U 22101AP  23043.44002314 -.00000860  00000-0 -35954-4 0  9995,2 53564  53.2198  47.6663 0001378  91.5035 268.6115 15.08839132 27173,6917.883,95.438,540.701,538.795,0.0
53564.0,STARLINK-4577,PAYLOAD,2023-02-12 16:55:11,15.08829888,0.0001351,53.2191,46.4764,97.7734,262.3411,-6.2827e-05,-1.287e-05,0.0,0 STARLINK-4577,1 53564U 22101AP  23043.70499049 -.00001287  00000-0 -62827-4 0  9992,2 53564  53.2191  46.4764 0001351  97.7734 262.3411 15.08829888 27212,6917.911,95.438,540.711,538.842,0.0
53564.0,STARLINK-4577,PAYLOAD,2023-02-13 10:24:25,15.08841835,0.0001908,53.22,43.2031,83.4582,276.6627,-5.0145e-05,-1.086e-05,0.0,0 STARLINK-4577,1 53564U 22101AP  23044.43362787 -.00001086  00000-0 -50145-4 0  9998,2 53564  53.2200  43.2031 0001908  83.4582 276.6627 15.08841835 27321,6917.875,95.437,541.06,538.42,0.0
53564.0,STARLINK-4577,PAYLOAD,2023-02-13 19:56:44,15.08824212,0.0001429,53.2177,41.4205,87.2228,272.8928,9.5701e-05,1.235e-05,0.0,0 STARLINK-4577,1 53564U 22101AP  23044.83107089  .00001235  00000-0  95701-4 0  9995,2 53564  53.2177  41.4205 0001429  87.2228 272.8928 15.08824212 27382,6917.929,95.439,540.782,538.805,0.0
53564.0,STARLINK-4577,PAYLOAD,2023-02-14 08:39:48,15.08842252,0.0001451,53.2185,39.0437,92.7535,267.3624,8.5385e-05,1.071e-05,0.0,0 STARLINK-4577,1 53564U 22101AP  23045.36098234  .00001071  00000-0  85385-4 0  9990,2 53564  53.2185  39.0437 0001451  92.7535 267.3624 15.08842252 27463,6917.874,95.437,540.742,538.735,0.0
53564.0,STARLINK-4577,PAYLOAD,2023-02-15 03:44:27,15.08832273,0.0001518,53.2213,35.4757,133.2384,226.8735,4.8244e-05,4.8e-06,0.0,0 STARLINK-4577,1 53564U 22101AP  23046.15586985  .00000480  00000-0  48244-4 0  9999,2 53564  53.2213  35.4757 0001518 133.2384 226.8735 15.08832273 27585,6917.904,95.438,540.819,538.719,0.0
53564.0,STARLINK-4577,PAYLOAD,2023-02-15 06:55:13,15.08842972,0.0001296,53.2196,34.8811,88.9045,271.2095,2.4411e-05,1.01e-06,0.0,0 STARLINK-4577,1 53564U 22101AP  23046.28834666  .00000101  00000-0  24411-4 0  9995,2 53564  53.2196  34.8811 0001296  88.9045 271.2095 15.08842972 27605,6917.871,95.437,540.633,538.84,0.0
53564.0,STARLINK-4577,PAYLOAD,2023-02-15 16:27:31,15.08845401,0.0001203,53.2201,33.096,97.0027,263.1102,-5.3486e-05,-1.139e-05,0.0,0 STARLINK-4577,1 53564U 22101AP  23046.68578633 -.00001139  00000-0 -53486-4 0  9996,2 53564  53.2201  33.0960 0001203  97.0027 263.1102 15.08845401 27662,6917.864,95.437,540.561,538.897,0.0
53564.0,STARLINK-4577,PAYLOAD,2023-02-16 05:10:35,15.08861444,0.0001609,53.2191,30.7187,130.0502,230.0631,0.00012425,1.691e-05,0.0,0 STARLINK-4577,1 53564U 22101AP  23047.21568560  .00001691  00000-0  12425-3 0  9992,2 53564  53.2191  30.7187 0001609 130.0502 230.0631 15.08861444 27745,6917.815,95.436,540.793,538.567,0.0
53564.0,STARLINK-4577,PAYLOAD,2023-02-16 16:18:19,15.08829984,0.0001371,53.2202,28.6359,93.2547,266.8602,2.6518e-05,1.34e-06,0.0,0 STARLINK-4577,1 53564U 22101AP  23047.67939021  .00000134  00000-0  26518-4 0  9996,2 53564  53.2202  28.6359 0001371  93.2547 266.8602 15.08829984 27816,6917.911,95.438,540.724,538.828,0.0
53564.0,STARLINK-4577,PAYLOAD,2023-02-17 08:12:11,15.08833044,9.59e-05,53.2202,25.6609,100.4237,259.6863,-5.4292e-05,-1.151e-05,0.0,0 STARLINK-4577,1 53564U 22101AP  23048.34179442 -.00001151  00000-0 -54292-4 0  9996,2 53564  53.2202  25.6609 0000959 100.4237 259.6863 15.08833044 27911,6917.902,95.438,540.43,539.103,0.0
53564.0,STARLINK-4577,PAYLOAD,2023-02-17 22:30:40,15.08827302,9.5e-05,53.22,22.9823,106.1725,253.9372,-0.00017091,-3.006e-05,0.0,0 STARLINK-4577,1 53564U 22101AP  23048.93796579 -.00003006  00000-0 -17091-3 0  9993,2 53564  53.2200  22.9823 0000950 106.1725 253.9372 15.08827302 28006,6917.919,95.438,540.441,539.127,0.0
53564.0,STARLINK-4577,PAYLOAD,2023-02-18 08:02:58,15.08839884,0.0001295,53.2202,21.2007,54.3706,305.7406,-0.00016918,-2.979e-05,0.0,0 STARLINK-4577,1 53564U 22101AP  23049.33540178 -.00002979  00000-0 -16918-3 0  9995,2 53564  53.2202  21.2007 0001295  54.3706 305.7406 15.08839884 28068,6917.881,95.438,540.642,538.85,0.0
53564.0,STARLINK-4577,PAYLOAD,2023-02-18 22:21:26,15.08832425,6.72e-05,53.221,18.5263,74.4509,285.6558,0.00021782,3.18e-05,0.0,0 STARLINK-4577,1 53564U 22101AP  23049.93155186  .00003180  00000-0  21782-3 0  9990,2 53564  53.2210  18.5263 0000672  74.4509 285.6558 15.08832425 28150,6917.904,95.438,540.233,539.304,0.0
53564.0,STARLINK-4577,PAYLOAD,2023-02-19 04:42:57,15.08846789,6.79e-05,53.2204,17.3373,72.1887,287.9179,0.00031684,4.759e-05,0.0,0 STARLINK-4577,1 53564U 22101AP  23050.19649989  .00004759  00000-0  31684-3 0  9994,2 53564  53.2204  17.3373 0000679  72.1887 287.9179 15.08846789 28199,6917.86,95.437,540.194,539.255,0.0
53564.0,STARLINK-4577,PAYLOAD,2023-02-19 14:15:15,15.08856249,5.04e-05,53.2203,15.5527,43.5685,316.5346,0.00017563,2.51e-05,0.0,0 STARLINK-4577,1 53564U 22101AP  23050.59393510  .00002510  00000-0  17563-3 0  9997,2 53564  53.2203  15.5527 0000504  43.5685 316.5346 15.08856249 28258,6917.831,95.437,540.044,539.347,0.0
53564.0,STARLINK-4577,PAYLOAD,2023-02-20 04:33:46,15.0883639,9.51e-05,53.2203,12.8776,68.0988,292.0106,5.5737e-05,5.99e-06,0.0,0 STARLINK-4577,1 53564U 22101AP  23051.19011675  .00000599  00000-0  55737-4 0  9994,2 53564  53.2203  12.8776 0000951  68.0988 292.0106 15.08836390 28345,6917.891,95.438,540.414,539.099,0.0
53564.0,STARLINK-4577,PAYLOAD,2023-02-21 02:49:09,15.08851913,9.58e-05,53.2191,8.7172,125.93,234.1781,-0.00010289,-1.925e-05,0.0,0 STARLINK-4577,1 53564U 22101AP  23052.11747009 -.00001925  00000-0 -10289-3 0  9992,2 53564  53.2191   8.7172 0000958 125.9300 234.1781 15.08851913 28482,6917.844,95.437,540.372,539.046,0.0
53564.0,STARLINK-4577,PAYLOAD,2023-02-21 07:35:18,15.08860982,0.0001012,53.2193,7.8236,84.7401,275.3706,-2.8308e-05,-7.39e-06,0.0,0 STARLINK-4577,1 53564U 22101AP  23052.31618219 -.00000739  00000-0 -28308-4 0  9998,2 53564  53.2193   7.8236 0001012  84.7401 275.3706 15.08860982 28515,6917.816,95.436,540.381,538.981,0.0
53564.0,STARLINK-4577,PAYLOAD,2023-02-21 13:56:51,15.08848161,0.0001353,53.2206,6.6311,64.3779,295.7353,-9.6986e-05,-1.831e-05,0.0,0 STARLINK-4577,1 53564U 22101AP  23052.58115136 -.00001831  00000-0 -96986-4 0  9998,2 53564  53.2206   6.6311 0001353  64.3779 295.7353 15.08848161 28554,6917.855,95.437,540.656,538.784,0.0
53564.0,STARLINK-4577,PAYLOAD,2023-02-21 20:18:24,15.08832669,0.0002016,53.2203,5.4419,71.928,288.1931,8.2161e-05,1.019e-05,0.0,0 STARLINK-4577,1 53564U 22101AP  23052.84611638  .00001019  00000-0  82161-4 0  9991,2 53564  53.2203   5.4419 0002016  71.9280 288.1931 15.08832669 28593,6917.903,95.438,541.162,538.373,0.0
53564.0,STARLINK-4577,PAYLOAD,2023-02-22 05:50:42,15.08845303,0.0001206,53.2204,3.6596,84.1,276.0129,5.2277e-05,5.44e-06,0.0,0 STARLINK-4577,1 53564U 22101AP  23053.24354848  .00000544  00000-0  52277-4 0  9990,2 53564  53.2204   3.6596 0001206  84.1000 276.0129 15.08845303 28657,6917.864,95.437,540.563,538.895,0.0
53564.0,STARLINK-4577,PAYLOAD,2023-02-22 20:09:12,15.08823274,0.0001011,53.2194,0.9836,88.1866,271.9242,-4.8156e-05,-1.054e-05,0.0,0 STARLINK-4577,1 53564U 22101AP  23053.83972798 -.00001054  00000-0 -48156-4 0  9995,2 53564  53.2194   0.9836 0001011  88.1866 271.9242 15.08823274 28743,6917.932,95.439,540.496,539.097,0.0
